0 ARIANE 5 DEB (SYLDA)
1 27717U 03013D   13280.15696375 -.00000046  00000-0  18756-2 0  9065
2 27717 001.7647 059.3742 7086711 006.3659 341.4253 02.22388597 85304
0 ARIANE 5 DEB (SYLDA)
1 27717U 03013D   13282.43493163 -.00000042  00000-0  79130-3 0  9079
2 27717 001.7726 058.6791 7086912 007.8537 005.1510 02.22388914 85350
0 ARIANE 5 DEB (SYLDA)
1 27717U 03013D   13285.57448480 -.00000059  00000-0  79130-3 0  9088
2 27717 001.7867 057.2583 7087073 010.3668 358.6547 02.22388054 85422
0 ARIANE 5 DEB (SYLDA)
1 27717U 03013D   13285.93824951 -.00000091  00000-0 -52980-3 0  9091
2 27717 001.7833 057.6144 7087338 010.1364 289.8911 02.22389291 85432
0 ARIANE 5 DEB (SYLDA)
1 27717U 03013D   13289.16210735 -.00000213  00000-0 -27418-2 0  9104
2 27717 001.7926 056.6307 7087771 012.2427 350.8940 02.22389489 85507
0 ARIANE 5 DEB (SYLDA)
1 27717U 03013D   13291.42928237 -.00000246  00000-0 -33826-2 0  9116
2 27717 001.7991 055.9403 7088019 013.7225 005.9826 02.22389405 85550
0 ARIANE 5 DEB (SYLDA)
1 27717U 03013D   13293.69503569 -.00000210  00000-0 -29194-2 0  9129
2 27717 001.8059 055.2588 7088323 015.1933 019.9361 02.22389049 85602
